STARLINK-31921          
1 59868U 24098L   26068.50810017 -.00003771  00000+0 -12766-3 0  9997
2 59868  43.0058 238.6667 0001977 279.3579  80.7049 15.27557354102276
TEVEL2-1                
1 63217U 25052H   26068.64782323  .00020683  00000+0  70600-3 0  9994
2 63217  97.3991 324.7682 0004767 104.8919 255.2849 15.30341923 54855
